NORAD_CAT_ID,OBJECT_NAME,OBJECT_TYPE,EPOCH,MEAN_MOTION,ECCENTRICITY,INCLINATION,RA_OF_ASC_NODE,ARG_OF_PERICENTER,MEAN_ANOMALY,BSTAR,MEAN_MOTION_DOT,MEAN_MOTION_DDOT,TLE_LINE0,TLE_LINE1,TLE_LINE2,SEMIMAJOR_AXIS,PERIOD,APOGEE,PERIGEE,DECAYED
52359.0,STARLINK-3853,PAYLOAD,2023-06-26 08:53:38,15.08843342,0.0001145,53.216,311.3808,72.6185,287.4932,0.00045834,7.015e-05,0.0,0 STARLINK-3853,1 52359U 22045AE  23177.37058220  .00007015  00000-0  45834-3 0  9994,2 52359  53.2160 311.3808 0001145  72.6185 287.4932 15.08843342 66732,6917.87,95.437,540.527,538.943,0.0
52359.0,STARLINK-3853,PAYLOAD,2023-06-27 08:44:25,15.08846487,0.000125,53.2173,306.9214,79.4322,280.681,0.00024406,3.599e-05,0.0,0 STARLINK-3853,1 52359U 22045AE  23178.36417982  .00003599  00000-0  24406-3 0  9993,2 52359  53.2173 306.9214 0001250  79.4322 280.6810 15.08846487 66881,6917.861,95.437,540.59,538.861,0.0
52359.0,STARLINK-3853,PAYLOAD,2023-06-28 08:35:12,15.0883957,0.0001157,53.2174,302.4596,84.2049,275.9075,5.211e-05,5.42e-06,0.0,0 STARLINK-3853,1 52359U 22045AE  23179.35778081  .00000542  00000-0  52110-4 0  9992,2 52359  53.2174 302.4596 0001157  84.2049 275.9075 15.08839570 67035,6917.882,95.438,540.547,538.946,0.0
52359.0,STARLINK-3853,PAYLOAD,2023-06-29 16:22:54,15.08845087,0.0001125,53.219,296.5138,92.9398,267.1723,9.7963e-05,1.272e-05,0.0,0 STARLINK-3853,1 52359U 22045AE  23180.68257777  .00001272  00000-0  97963-4 0  9990,2 52359  53.2190 296.5138 0001125  92.9398 267.1723 15.08845087 67231,6917.865,95.437,540.508,538.952,0.0
52359.0,STARLINK-3853,PAYLOAD,2023-07-01 16:04:29,15.08836622,0.0001021,53.2182,287.5935,93.0444,267.0665,3.4006e-05,2.53e-06,0.0,0 STARLINK-3853,1 52359U 22045AE  23182.66978698  .00000253  00000-0  34006-4 0  9999,2 52359  53.2182 287.5935 0001021  93.0444 267.0665 15.08836622 67538,6917.891,95.438,540.462,539.049,0.0
52359.0,STARLINK-3853,PAYLOAD,2023-07-02 23:52:11,15.08846012,0.0001111,53.2178,281.6441,87.4853,272.6266,3.8941e-05,3.32e-06,0.0,0 STARLINK-3853,1 52359U 22045AE  23183.99458224  .00000332  00000-0  38941-4 0  9994,2 52359  53.2178 281.6441 0001111  87.4853 272.6266 15.08846012 67736,6917.862,95.437,540.496,538.958,0.0
52359.0,STARLINK-3853,PAYLOAD,2023-07-04 10:50:41,15.08840156,0.0001088,53.2168,275.1018,93.8018,266.3098,1.4466e-05,-5.8e-07,0.0,0 STARLINK-3853,1 52359U 22045AE  23185.45186639 -.00000058  00000-0  14466-4 0  9997,2 52359  53.2168 275.1018 0001088  93.8018 266.3098 15.08840156 67950,6917.88,95.438,540.498,538.992,0.0
52359.0,STARLINK-3853,PAYLOAD,2023-07-05 12:16:51,15.08839948,0.0001051,53.2176,270.3452,86.9251,273.1862,9.4104e-06,-1.38e-06,0.0,0 STARLINK-3853,1 52359U 22045AE  23186.51170674 -.00000138  00000-0  94104-5 0  9994,2 52359  53.2176 270.3452 0001051  86.9251 273.1862 15.08839948 68111,6917.881,95.438,540.473,539.018,0.0
52359.0,STARLINK-3853,PAYLOAD,2023-07-06 15:18:24,15.08844672,0.000102,53.2172,265.2892,83.958,276.1528,0.00012281,1.668e-05,0.0,0 STARLINK-3853,1 52359U 22045AE  23187.63778181  .00001668  00000-0  12281-3 0  9997,2 52359  53.2172 265.2892 0001020  83.9580 276.1528 15.08844672 68286,6917.866,95.437,540.437,539.025,0.0
52359.0,STARLINK-3853,PAYLOAD,2023-07-07 04:01:30,15.08838664,9.79e-05,53.2168,262.9099,80.8917,279.2186,6.2788e-05,7.12e-06,0.0,0 STARLINK-3853,1 52359U 22045AE  23188.16770852  .00000712  00000-0  62788-4 0  9990,2 52359  53.2168 262.9099 0000979  80.8917 279.2186 15.08838664 68363,6917.884,95.438,540.427,539.072,0.0
52359.0,STARLINK-3853,PAYLOAD,2023-07-07 11:58:25,15.08844643,9.69e-05,53.2167,261.4235,79.9756,280.1346,9.3856e-05,1.206e-05,0.0,0 STARLINK-3853,1 52359U 22045AE  23188.49890334  .00001206  00000-0  93856-4 0  9993,2 52359  53.2167 261.4235 0000969  79.9756 280.1346 15.08844643 68416,6917.866,95.437,540.402,539.061,0.0
52359.0,STARLINK-3853,PAYLOAD,2023-07-07 21:30:44,15.08840196,9.75e-05,53.2168,259.6387,82.6483,277.462,5.1862e-05,5.38e-06,0.0,0 STARLINK-3853,1 52359U 22045AE  23188.89634695  .00000538  00000-0  51862-4 0  9991,2 52359  53.2168 259.6387 0000975  82.6483 277.4620 15.08840196 68478,6917.88,95.438,540.419,539.07,0.0
52359.0,STARLINK-3853,PAYLOAD,2023-07-09 05:18:27,15.0883263,0.0001047,53.2182,253.6931,97.5197,262.5914,-1.2627e-05,-4.89e-06,0.0,0 STARLINK-3853,1 52359U 22045AE  23190.22115552 -.00000489  00000-0 -12627-4 0  9990,2 52359  53.2182 253.6931 0001047  97.5197 262.5914 15.08832630 68678,6917.903,95.438,540.492,539.044,0.0
52359.0,STARLINK-3853,PAYLOAD,2023-07-10 05:09:14,15.08841748,0.0001115,53.2174,249.2323,91.5392,268.5727,1.5333e-05,-4.4e-07,0.0,0 STARLINK-3853,1 52359U 22045AE  23191.21475150 -.00000044  00000-0  15333-4 0  9996,2 52359  53.2174 249.2323 0001115  91.5392 268.5727 15.08841748 68827,6917.875,95.437,540.511,538.969,0.0
52359.0,STARLINK-3853,PAYLOAD,2023-07-10 21:03:06,15.08836916,9.54e-05,53.2166,246.258,84.1444,275.9657,2.4789e-05,1.07e-06,0.0,0 STARLINK-3853,1 52359U 22045AE  23191.87715472  .00000107  00000-0  24789-4 0  9996,2 52359  53.2166 246.2580 0000954  84.1444 275.9657 15.08836916 68922,6917.89,95.438,540.415,539.095,0.0
52359.0,STARLINK-3853,PAYLOAD,2023-07-12 03:15:25,15.08846505,9.57e-05,53.216,240.6074,81.5276,278.5824,4.8778e-05,4.89e-06,0.0,0 STARLINK-3853,1 52359U 22045AE  23193.13571037  .00000489  00000-0  48778-4 0  9991,2 52359  53.2160 240.6074 0000957  81.5276 278.5824 15.08846505 69111,6917.861,95.437,540.388,539.063,0.0
52359.0,STARLINK-3853,PAYLOAD,2023-07-13 12:38:31,15.08838526,9.49e-05,53.2159,234.3628,78.4508,281.659,1.8149e-05,1e-08,0.0,0 STARLINK-3853,1 52359U 22045AE  23194.52675512  .00000001  00000-0  18149-4 0  9997,2 52359  53.2159 234.3628 0000949  78.4508 281.6590 15.08838526 69320,6917.885,95.438,540.406,539.093,0.0
52359.0,STARLINK-3853,PAYLOAD,2023-07-15 02:47:46,15.08837994,0.000101,53.216,227.2263,85.0158,275.0949,9.0465e-05,1.152e-05,0.0,0 STARLINK-3853,1 52359U 22045AE  23196.11651503  .00001152  00000-0  90465-4 0  9997,2 52359  53.2160 227.2263 0001010  85.0158 275.0949 15.08837994 69562,6917.887,95.438,540.45,539.053,0.0
52359.0,STARLINK-3853,PAYLOAD,2023-07-16 02:38:34,15.08832914,0.0001074,53.2165,222.7661,91.5035,268.608,2.7508e-05,1.5e-06,0.0,0 STARLINK-3853,1 52359U 22045AE  23197.11012241  .00000150  00000-0  27508-4 0  9993,2 52359  53.2165 222.7661 0001074  91.5035 268.6080 15.08832914 69713,6917.902,95.438,540.51,539.024,0.0
52359.0,STARLINK-3853,PAYLOAD,2023-07-17 00:53:58,15.08839647,0.0001015,53.2162,218.6031,88.6221,271.4888,5.2655e-05,5.5e-06,0.0,0 STARLINK-3853,1 52359U 22045AE  23198.03748008  .00000550  00000-0  52655-4 0  9997,2 52359  53.2162 218.6031 0001015  88.6221 271.4888 15.08839647 69857,6917.881,95.438,540.449,539.044,0.0
52359.0,STARLINK-3853,PAYLOAD,2023-07-18 10:17:03,15.08843268,9.68e-05,53.2161,212.358,85.7382,274.3721,0.00012709,1.736e-05,0.0,0 STARLINK-3853,1 52359U 22045AE  23199.42851657  .00001736  00000-0  12709-3 0  9998,2 52359  53.2161 212.3580 0000968  85.7382 274.3721 15.08843268 70065,6917.87,95.437,540.405,539.066,0.0
52359.0,STARLINK-3853,PAYLOAD,2023-07-19 00:35:32,15.08840086,0.0001018,53.2162,209.6818,83.8125,276.2983,4.6959e-05,4.6e-06,0.0,0 STARLINK-3853,1 52359U 22045AE  23200.02468087  .00000460  00000-0  46959-4 0  9996,2 52359  53.2162 209.6818 0001018  83.8125 276.2983 15.08840086 70156,6917.88,95.438,540.449,539.041,0.0
52359.0,STARLINK-3853,PAYLOAD,2023-07-20 06:47:51,15.0884256,0.0001054,53.2161,204.0318,81.145,278.9661,3.1175e-05,2.08e-06,0.0,0 STARLINK-3853,1 52359U 22045AE  23201.28323899  .00000208  00000-0  31175-4 0  9990,2 52359  53.2161 204.0318 0001054  81.1450 278.9661 15.08842560 70343,6917.873,95.437,540.467,539.008,0.0
52359.0,STARLINK-3853,PAYLOAD,2023-07-21 06:38:39,15.08838298,0.0001137,53.2167,199.5715,94.5798,265.5324,5.2748e-05,5.52e-06,0.0,0 STARLINK-3853,1 52359U 22045AE  23202.27684114  .00000552  00000-0  52748-4 0  9991,2 52359  53.2167 199.5715 0001137  94.5798 265.5324 15.08838298 70490,6917.886,95.438,540.537,538.964,0.0
52359.0,STARLINK-3853,PAYLOAD,2023-07-24 07:46:24,15.08834537,0.0001125,53.2157,185.8919,99.079,261.0329,3.1798e-06,-2.37e-06,0.0,0 STARLINK-3853,1 52359U 22045AE  23205.32389027 -.00000237  00000-0  31798-5 0  9999,2 52359  53.2157 185.8919 0001125  99.0790 261.0329 15.08834537 70951,6917.897,95.438,540.54,538.984,0.0
52359.0,STARLINK-3853,PAYLOAD,2023-07-25 07:37:10,15.088404,0.0001131,53.2163,181.4313,98.9961,261.1159,5.6166e-05,6.06e-06,0.0,0 STARLINK-3853,1 52359U 22045AE  23206.31748709  .00000606  00000-0  56166-4 0  9999,2 52359  53.2163 181.4313 0001131  98.9961 261.1159 15.08840400 71109,6917.879,95.438,540.527,538.962,0.0
52359.0,STARLINK-3853,PAYLOAD,2023-07-26 07:27:58,15.08836527,0.0001086,53.2126,176.9665,107.4175,252.6936,7.2001e-05,8.58e-06,0.0,0 STARLINK-3853,1 52359U 22045AE  23207.31109082  .00000858  00000-0  72001-4 0  9990,2 52359  53.2126 176.9665 0001086 107.4175 252.6936 15.08836527 71258,6917.891,95.438,540.507,539.005,0.0
52359.0,STARLINK-3853,PAYLOAD,2023-07-26 23:21:49,15.08845064,0.0001161,53.2171,173.9956,82.0532,278.0592,7.1498e-05,8.5e-06,0.0,0 STARLINK-3853,1 52359U 22045AE  23207.97348645  .00000850  00000-0  71498-4 0  9993,2 52359  53.2171 173.9956 0001161  82.0532 278.0592 15.08845064 71354,6917.865,95.437,540.533,538.927,0.0
52359.0,STARLINK-3853,PAYLOAD,2023-07-27 07:18:44,15.08850558,0.0001111,53.2165,172.5095,93.9109,266.201,0.00011452,1.536e-05,0.0,0 STARLINK-3853,1 52359U 22045AE  23208.30468002  .00001536  00000-0  11452-3 0  9996,2 52359  53.2165 172.5095 0001111  93.9109 266.2010 15.08850558 71406,6917.848,95.437,540.482,538.945,0.0
52359.0,STARLINK-3853,PAYLOAD,2023-07-27 15:15:40,15.08839736,0.0001124,53.2163,171.0206,90.984,269.1281,6.6546e-05,7.71e-06,0.0,0 STARLINK-3853,1 52359U 22045AE  23208.63588733  .00000771  00000-0  66546-4 0  9991,2 52359  53.2163 171.0206 0001124  90.9840 269.1281 15.08839736 71457,6917.881,95.438,540.524,538.969,0.0
